MALLIGYONG-1            
1 58400U 23179A   24125.53222128  .00005840  00000+0  25633-3 0  9996
2 58400  97.4099  13.0411 0010895  62.9715 297.2632 15.22280461 25087
